NORAD_CAT_ID,OBJECT_NAME,OBJECT_TYPE,EPOCH,MEAN_MOTION,ECCENTRICITY,INCLINATION,RA_OF_ASC_NODE,ARG_OF_PERICENTER,MEAN_ANOMALY,BSTAR,MEAN_MOTION_DOT,MEAN_MOTION_DDOT,TLE_LINE0,TLE_LINE1,TLE_LINE2,SEMIMAJOR_AXIS,PERIOD,APOGEE,PERIGEE,DECAYED
54182.0,STARLINK-5231,PAYLOAD,2024-06-08 11:15:17,15.08895148,0.0001774,53.2129,323.3251,92.9596,267.1599,-0.00069966,-0.00011423,0.0,0 STARLINK-5231,1 54182U 22141AB  24160.46895320 -.00011423  00000-0 -69966-3 0  9992,2 54182  53.2129 323.3251 0001774  92.9596 267.1599 15.08895148 90010,6917.712,95.434,540.804,538.35,0.0
54182.0,STARLINK-5231,PAYLOAD,2024-06-08 19:12:14,15.08850467,0.0001891,53.2145,321.8443,95.0697,265.0511,0.00033265,5.012e-05,0.0,0 STARLINK-5231,1 54182U 22141AB  24160.80016734  .00005012  00000-0  33265-3 0  9992,2 54182  53.2145 321.8443 0001891  95.0697 265.0511 15.08850467 90061,6917.848,95.437,541.022,538.405,0.0
54182.0,STARLINK-5231,PAYLOAD,2024-06-08 20:47:37,15.0885188,0.0001907,53.2147,321.5466,95.6789,264.442,0.00034991,5.287e-05,0.0,0 STARLINK-5231,1 54182U 22141AB  24160.86640654  .00005287  00000-0  34991-3 0  9993,2 54182  53.2147 321.5466 0001907  95.6789 264.4420 15.08851880 89847,6917.844,95.437,541.028,538.39,0.0
54182.0,STARLINK-5231,PAYLOAD,2024-06-09 11:06:06,15.08835457,0.0002015,53.2137,318.8679,95.286,264.8362,5.4569e-05,5.8e-06,0.0,0 STARLINK-5231,1 54182U 22141AB  24161.46257692  .00000580  00000-0  54569-4 0  9991,2 54182  53.2137 318.8679 0002015  95.2860 264.8362 15.08835457 90166,6917.894,95.438,541.153,538.365,0.0
54182.0,STARLINK-5231,PAYLOAD,2024-06-09 19:03:02,15.08834284,0.0001496,53.2167,317.3842,83.7244,276.3918,3.2981e-05,2.37e-06,0.0,0 STARLINK-5231,1 54182U 22141AB  24161.79377945  .00000237  00000-0  32981-4 0  9994,2 54182  53.2167 317.3842 0001496  83.7244 276.3918 15.08834284 89985,6917.898,95.438,540.798,538.728,0.0
54182.0,STARLINK-5231,PAYLOAD,2024-06-10 14:07:39,15.08844432,0.0001288,53.2163,313.8142,77.5942,282.5194,4.7827e-05,4.73e-06,0.0,0 STARLINK-5231,1 54182U 22141AB  24162.58865545  .00000473  00000-0  47827-4 0  9997,2 54182  53.2163 313.8142 0001288  77.5942 282.5194 15.08844432 90107,6917.867,95.437,540.623,538.841,0.0
54182.0,STARLINK-5231,PAYLOAD,2024-06-10 17:18:26,15.0884678,0.000143,53.2176,313.222,87.5324,272.5832,0.00021001,3.057e-05,0.0,0 STARLINK-5231,1 54182U 22141AB  24162.72113434  .00003057  00000-0  21001-3 0  9992,2 54182  53.2176 313.2220 0001430  87.5324 272.5832 15.08846780 90359,6917.86,95.437,540.714,538.735,0.0
54182.0,STARLINK-5231,PAYLOAD,2024-06-11 13:58:27,15.08841933,0.0001297,53.2177,309.3557,80.4736,279.6403,0.00016001,2.26e-05,0.0,0 STARLINK-5231,1 54182U 22141AB  24163.58225718  .00002260  00000-0  16001-3 0  9995,2 54182  53.2177 309.3557 0001297  80.4736 279.6403 15.08841933 90255,6917.874,95.437,540.637,538.842,0.0
54182.0,STARLINK-5231,PAYLOAD,2024-06-11 17:09:13,15.08848883,0.0001368,53.2176,308.7607,79.4034,280.7113,0.00028661,4.277e-05,0.0,0 STARLINK-5231,1 54182U 22141AB  24163.71473480  .00004277  00000-0  28661-3 0  9996,2 54182  53.2176 308.7607 0001368  79.4034 280.7113 15.08848883 90501,6917.853,95.437,540.665,538.772,0.0
54182.0,STARLINK-5231,PAYLOAD,2024-06-12 17:00:00,15.08837898,0.0001288,53.2178,304.3005,80.8148,279.299,-8.1542e-06,-4.18e-06,0.0,0 STARLINK-5231,1 54182U 22141AB  24164.70834004 -.00000418  00000-0 -81542-5 0  9993,2 54182  53.2178 304.3005 0001288  80.8148 279.2990 15.08837898 90656,6917.887,95.438,540.643,538.861,0.0
54182.0,STARLINK-5231,PAYLOAD,2024-06-13 15:15:24,15.08849027,9.8e-05,53.216,300.1373,94.932,265.1784,0.00034117,5.147e-05,0.0,0 STARLINK-5231,1 54182U 22141AB  24165.63569703  .00005147  00000-0  34117-3 0  9993,2 54182  53.2160 300.1373 0000980  94.9320 265.1784 15.08849027 90567,6917.853,95.437,540.396,539.04,0.0
54182.0,STARLINK-5231,PAYLOAD,2024-06-14 15:06:11,15.08837445,0.0001211,53.2174,295.6751,92.7829,267.3301,5.7041e-05,6.2e-06,0.0,0 STARLINK-5231,1 54182U 22141AB  24166.62930277  .00000620  00000-0  57041-4 0  9994,2 54182  53.2174 295.6751 0001211  92.7829 267.3301 15.08837445 90715,6917.888,95.438,540.591,538.915,0.0
54182.0,STARLINK-5231,PAYLOAD,2024-06-15 13:21:35,15.08850784,0.0001377,53.2176,291.5127,87.7362,272.3787,0.00025238,3.732e-05,0.0,0 STARLINK-5231,1 54182U 22141AB  24167.55665712  .00003732  00000-0  25238-3 0  9995,2 54182  53.2176 291.5127 0001377  87.7362 272.3787 15.08850784 90858,6917.847,95.437,540.665,538.76,0.0
54182.0,STARLINK-5231,PAYLOAD,2024-06-15 14:56:58,15.08854267,0.0001241,53.2169,291.2144,86.3103,273.8031,0.00029193,4.363e-05,0.0,0 STARLINK-5231,1 54182U 22141AB  24167.62289511  .00004363  00000-0  29193-3 0  9997,2 54182  53.2169 291.2144 0001241  86.3103 273.8031 15.08854267 90863,6917.837,95.437,540.56,538.843,0.0
54182.0,STARLINK-5231,PAYLOAD,2024-06-16 14:47:45,15.08847182,0.0001289,53.216,286.7547,82.6583,277.4555,0.00018497,2.658e-05,0.0,0 STARLINK-5231,1 54182U 22141AB  24168.61649435  .00002658  00000-0  18497-3 0  9992,2 54182  53.2160 286.7547 0001289  82.6583 277.4555 15.08847182 91010,6917.858,95.437,540.615,538.832,0.0
54182.0,STARLINK-5231,PAYLOAD,2024-06-17 14:38:32,15.08838593,0.000133,53.2168,282.2963,90.6658,269.4486,-8.1986e-05,-1.592e-05,0.0,0 STARLINK-5231,1 54182U 22141AB  24169.61009893 -.00001592  00000-0 -81986-4 0  9993,2 54182  53.2168 282.2963 0001330  90.6658 269.4486 15.08838593 91166,6917.885,95.438,540.67,538.83,0.0
54182.0,STARLINK-5231,PAYLOAD,2024-06-18 12:53:56,15.08840524,0.0001329,53.2173,278.1336,104.6896,255.4244,5.3672e-05,5.66e-06,0.0,0 STARLINK-5231,1 54182U 22141AB  24170.53746072  .00000566  00000-0  53672-4 0  9992,2 54182  53.2173 278.1336 0001329 104.6896 255.4244 15.08840524 91533,6917.879,95.438,540.663,538.824,0.0
54182.0,STARLINK-5231,PAYLOAD,2024-06-18 14:29:19,15.08841407,0.0001247,53.2172,277.8367,100.5788,259.5345,9.6938e-05,1.255e-05,0.0,0 STARLINK-5231,1 54182U 22141AB  24170.60370037  .00001255  00000-0  96938-4 0  9992,2 54182  53.2172 277.8367 0001247 100.5788 259.5345 15.08841407 91310,6917.876,95.437,540.604,538.878,0.0
54182.0,STARLINK-5231,PAYLOAD,2024-06-19 12:44:44,15.08830114,0.000147,53.2169,273.6729,88.7178,271.3982,-2.3581e-06,-3.25e-06,0.0,0 STARLINK-5231,1 54182U 22141AB  24171.53107196 -.00000325  00000-0 -23581-5 0  9993,2 54182  53.2169 273.6729 0001470  88.7178 271.3982 15.08830114 91682,6917.911,95.438,540.793,538.759,0.0
54182.0,STARLINK-5231,PAYLOAD,2024-06-19 14:20:07,15.08832203,0.0001349,53.2167,273.3757,91.0037,269.111,3.0418e-05,1.96e-06,0.0,0 STARLINK-5231,1 54182U 22141AB  24171.59731093  .00000196  00000-0  30418-4 0  9998,2 54182  53.2167 273.3757 0001349  91.0037 269.1110 15.08832203 91469,6917.904,95.438,540.702,538.836,0.0
54182.0,STARLINK-5231,PAYLOAD,2024-06-19 15:55:30,15.08833562,0.0001366,53.216,273.0779,87.3475,272.7673,5.1925e-05,5.38e-06,0.0,0 STARLINK-5231,1 54182U 22141AB  24171.66355078  .00000538  00000-0  51925-4 0  9997,2 54182  53.2160 273.0779 0001366  87.3475 272.7673 15.08833562 91470,6917.9,95.438,540.71,538.82,0.0
54182.0,STARLINK-5231,PAYLOAD,2024-06-20 14:10:54,15.08849753,0.0001274,53.2158,268.915,85.7573,274.3565,0.00033757,5.09e-05,0.0,0 STARLINK-5231,1 54182U 22141AB  24172.59090513  .00005090  00000-0  33757-3 0  9990,2 54182  53.2158 268.9150 0001274  85.7573 274.3565 15.08849753 91615,6917.851,95.437,540.597,538.834,0.0
54182.0,STARLINK-5231,PAYLOAD,2024-06-20 15:46:17,15.08854535,0.0001344,53.2157,268.6175,86.0106,274.104,0.00040064,6.096e-05,0.0,0 STARLINK-5231,1 54182U 22141AB  24172.65714319  .00006096  00000-0  40064-3 0  9990,2 54182  53.2157 268.6175 0001344  86.0106 274.1040 15.08854535 91858,6917.836,95.437,540.631,538.771,0.0
54182.0,STARLINK-5231,PAYLOAD,2024-06-20 23:43:13,15.08844915,0.0001204,53.2157,267.1279,92.6093,267.5037,0.00017866,2.557e-05,0.0,0 STARLINK-5231,1 54182U 22141AB  24172.98834532  .00002557  00000-0  17866-3 0  9998,2 54182  53.2157 267.1279 0001204  92.6093 267.5037 15.08844915 91909,6917.865,95.437,540.563,538.897,0.0
54182.0,STARLINK-5231,PAYLOAD,2024-06-21 12:26:18,15.08844835,0.0001416,53.2163,264.7499,95.6455,264.4699,0.00010937,1.453e-05,0.0,0 STARLINK-5231,1 54182U 22141AB  24173.51826587  .00001453  00000-0  10937-3 0  9995,2 54182  53.2163 264.7499 0001416  95.6455 264.4699 15.08844835 91757,6917.866,95.437,540.71,538.751,0.0
54182.0,STARLINK-5231,PAYLOAD,2024-06-22 12:17:05,15.08842697,0.0001386,53.2162,260.2915,87.8124,272.3026,5.9661e-05,6.62e-06,0.0,0 STARLINK-5231,1 54182U 22141AB  24174.51186788  .00000662  00000-0  59661-4 0  9997,2 54182  53.2162 260.2915 0001386  87.8124 272.3026 15.08842697 92131,6917.872,95.437,540.696,538.778,0.0
54182.0,STARLINK-5231,PAYLOAD,2024-06-23 12:07:52,15.08844183,0.0001405,53.2162,255.8319,91.1959,268.9194,0.00018592,2.673e-05,0.0,0 STARLINK-5231,1 54182U 22141AB  24175.50546767  .00002673  00000-0  18592-3 0  9995,2 54182  53.2162 255.8319 0001405  91.1959 268.9194 15.08844183 92055,6917.868,95.437,540.705,538.761,0.0
54182.0,STARLINK-5231,PAYLOAD,2024-06-23 15:18:38,15.08847381,0.0001343,53.2155,255.2353,84.0363,276.0782,0.00020247,2.936e-05,0.0,0 STARLINK-5231,1 54182U 22141AB  24175.63794568  .00002936  00000-0  20247-3 0  9995,2 54182  53.2155 255.2353 0001343  84.0363 276.0782 15.08847381 92304,6917.858,95.437,540.652,538.794,0.0
54182.0,STARLINK-5231,PAYLOAD,2024-06-24 11:58:39,15.08845852,0.0001433,53.2164,251.366,102.3664,257.7489,0.00014166,1.968e-05,0.0,0 STARLINK-5231,1 54182U 22141AB  24176.49906309  .00001968  00000-0  14166-3 0  9995,2 54182  53.2164 251.3660 0001433 102.3664 257.7489 15.08845852 92200,6917.863,95.437,540.719,538.736,0.0
54182.0,STARLINK-5231,PAYLOAD,2024-06-25 10:14:03,15.08836387,0.0001469,53.2158,247.204,96.1724,263.9435,-5.139e-05,-1.106e-05,0.0,0 STARLINK-5231,1 54182U 22141AB  24177.42642762 -.00001106  00000-0 -51390-4 0  9996,2 54182  53.2158 247.2040 0001469  96.1724 263.9435 15.08836387 92578,6917.891,95.438,540.773,538.74,0.0
